OBJECT_NAME,OBJECT_ID,EPOCH,MEAN_MOTION,ECCENTRICITY,INCLINATION,RA_OF_ASC_NODE,ARG_OF_PERICENTER,MEAN_ANOMALY,EPHEMERIS_TYPE,CLASSIFICATION_TYPE,NORAD_CAT_ID,ELEMENT_SET_NO,REV_AT_EPOCH,BSTAR,MEAN_MOTION_DOT,MEAN_MOTION_DDOT
STARLINK-34544,2025-152Z,2026-07-02T03:36:43.397856,15.05670501,.00023677,97.2879,36.8288,102.0709,258.0784,0,U,64865,999,5264,.47030919E-3,.674E-4,0
STARLINK-34647,2025-157A,2026-07-02T05:39:56.129184,15.34416086,.00017847,53.1581,172.7456,95.0141,265.1065,0,U,64904,999,5366,.78444695E-3,.26234E-3,0
STARLINK-34273,2025-157B,2026-07-02T07:01:36.541056,15.34399005,.00011169,53.1586,172.3849,93.4445,266.6685,0,U,64905,999,5369,.50197739E-3,.16621E-3,0
STARLINK-34713,2025-157C,2026-07-02T06:22:21.053280,15.34398524,.00010983,53.1575,172.9252,80.2436,279.8691,0,U,64906,999,5362,.6528739E-3,.21745E-3,0
STARLINK-34712,2025-157D,2026-07-02T05:33:11.695104,15.34403220,.00017099,53.1589,171.2962,95.5090,264.6108,0,U,64907,999,5369,.6236579E-3,.20756E-3,0
STARLINK-34702,2025-157E,2026-07-02T06:01:11.000064,15.31724533,.00012423,53.1578,172.8324,120.2228,239.8897,0,U,64908,999,5367,.79258312E-3,.24329E-3,0
STARLINK-34687,2025-157F,2026-07-02T06:25:22.703232,15.34400173,.00014929,53.1584,172.9364,63.5695,296.5461,0,U,64909,999,5362,.45615492E-3,.15067E-3,0
STARLINK-34642,2025-157G,2026-07-02T07:01:32.534688,15.31713945,.00013277,53.1593,172.3894,79.1177,280.9973,0,U,64910,999,5368,.58662991E-3,.1789E-3,0
STARLINK-34718,2025-157H,2026-07-02T06:28:24.687552,15.34397087,.00009452,53.1580,172.9500,74.9125,285.1982,0,U,64911,999,5367,.59080504E-3,.19636E-3,0
STARLINK-34711,2025-157J,2026-07-02T05:36:54.169056,15.34408506,.00009942,53.1588,172.7302,95.1533,264.9583,0,U,64912,999,5367,.99521888E-3,.33408E-3,0
STARLINK-34659,2025-157K,2026-07-02T05:54:28.067616,15.31720973,.00010391,53.1578,172.8057,71.0758,289.0356,0,U,64913,999,5362,.72729931E-3,.22286E-3,0
STARLINK-34571,2025-157L,2026-07-02T06:10:14.728224,15.34372168,.00014301,53.1576,172.8702,86.2744,273.8422,0,U,64914,999,5362,.35989105E-3,.11792E-3,0
STARLINK-34636,2025-157M,2026-07-02T05:33:52.411968,15.34409195,.0001722,53.1591,172.7128,96.5251,263.5947,0,U,64915,999,5367,.72907746E-3,.24344E-3,0
STARLINK-34695,2025-157N,2026-07-02T06:26:05.453952,15.34407101,.00013222,53.1584,165.1363,86.0409,274.0744,0,U,64916,999,5378,.52687471E-3,.17471E-3,0
STARLINK-34653,2025-157P,2026-07-02T06:48:14.373216,15.31724457,.00016507,53.1581,173.0338,71.8719,288.2462,0,U,64917,999,5362,.35520992E-3,.10682E-3,0
STARLINK-34611,2025-157Q,2026-07-02T06:55:33.032064,15.34403426,.00012672,53.1584,172.3594,93.0091,267.1056,0,U,64918,999,5368,.64171905E-3,.21369E-3,0
STARLINK-34599,2025-157R,2026-07-02T06:49:37.165152,15.34401588,.00012054,53.1585,173.0285,87.3943,272.7197,0,U,64919,999,5367,.62123218E-3,.20672E-3,0
STARLINK-34069,2025-157S,2026-07-02T06:01:10.873920,15.34380804,.00014054,53.1588,172.8358,86.3189,273.7974,0,U,64920,999,5367,.89313133E-3,.29902E-3,0
STARLINK-34699,2025-157T,2026-07-02T06:52:31.262016,15.34402155,.00013387,53.1583,172.3455,86.5561,273.5595,0,U,64921,999,5368,.50676338E-3,.16785E-3,0
STARLINK-34700,2025-157U,2026-07-02T06:40:31.810944,15.34412529,.00011057,53.1588,172.9996,99.8367,260.2760,0,U,64922,999,5362,.93289543E-3,.31287E-3,0
STARLINK-34643,2025-157V,2026-07-02T05:49:01.479936,15.34421387,.00015535,53.1588,172.7787,77.2289,282.8887,0,U,64923,999,5367,.93518646E-3,.31374E-3,0
STARLINK-34199,2025-157W,2026-07-02T05:34:18.041664,15.31719592,.00013629,53.1597,172.7147,86.9514,273.1644,0,U,64924,999,5362,.58636952E-3,.17885E-3,0
STARLINK-34579,2025-157X,2026-07-02T05:52:03.175680,15.34403362,.00012471,53.1583,172.7919,79.4244,280.6899,0,U,64925,999,5367,.10963524E-2,.36852E-3,0
STARLINK-34543,2025-157Y,2026-07-02T03:33:35.604864,15.31721865,.00012188,53.1575,173.6096,95.2111,264.9030,0,U,64926,999,5360,.89334979E-3,.27478E-3,0
STARLINK-34661,2025-157Z,2026-07-02T05:45:59.487840,15.34409887,.00014117,53.1592,172.7551,81.6512,278.4651,0,U,64927,999,5339,.68040589E-3,.22689E-3,0
STARLINK-34248,2025-157AA,2026-07-02T05:03:42.155712,15.34411939,.00011514,53.1580,173.2898,103.0532,257.0600,0,U,64928,999,5366,.95462502E-3,.32027E-3,0
STARLINK-34290,2025-157AB,2026-07-02T06:43:33.151584,15.34379463,.00009483,53.1591,173.0147,97.1420,262.9690,0,U,64929,999,5367,.56770623E-3,.1884E-3,0
STARLINK-34220,2025-157AC,2026-07-02T05:47:44.592576,15.31729746,.00013488,53.1586,172.7629,82.2897,277.8257,0,U,64930,999,5356,.94322489E-3,.29046E-3,0
STARLINK-34715,2025-157AD,2026-07-02T06:04:10.276608,15.34399418,.00012858,53.1582,172.8414,84.2519,275.8631,0,U,64931,999,5367,.10071246E-2,.33804E-3,0
STARLINK-34705,2025-158A,2026-07-02T04:53:18.678624,15.05669972,.00025566,97.2873,45.3521,81.3126,278.8391,0,U,64932,999,5258,.52855202E-3,.7582E-4,0
