STARLINK-34544          
1 64865U 25152Z   26183.15050229  .00006740  00000+0  47031-3 0  9992
2 64865  97.2879  36.8288 0002367 102.0709 258.0784 15.05670501 52646
STARLINK-34647          
1 64904U 25157A   26183.23606631  .00026234  00000+0  78445-3 0  9997
2 64904  53.1581 172.7456 0001784  95.0141 265.1065 15.34416086 53663
STARLINK-34273          
1 64905U 25157B   26183.29278404  .00016621  00000+0  50198-3 0  9991
2 64905  53.1586 172.3849 0001116  93.4445 266.6685 15.34399005 53697
STARLINK-34713          
1 64906U 25157C   26183.26552145  .00021745  00000+0  65287-3 0  9994
2 64906  53.1575 172.9252 0001098  80.2436 279.8691 15.34398524 53624
STARLINK-34712          
1 64907U 25157D   26183.23138536  .00020756  00000+0  62366-3 0  9992
2 64907  53.1589 171.2962 0001709  95.5090 264.6108 15.34403220 53696
STARLINK-34702          
1 64908U 25157E   26183.25082176  .00024329  00000+0  79258-3 0  9991
2 64908  53.1578 172.8324 0001242 120.2228 239.8897 15.31724533 53672
STARLINK-34687          
1 64909U 25157F   26183.26762388  .00015067  00000+0  45615-3 0  9992
2 64909  53.1584 172.9364 0001492  63.5695 296.5461 15.34400173 53625
STARLINK-34642          
1 64910U 25157G   26183.29273767  .00017890  00000+0  58663-3 0  9998
2 64910  53.1593 172.3894 0001327  79.1177 280.9973 15.31713945 53686
STARLINK-34718          
1 64911U 25157H   26183.26973018  .00019636  00000+0  59081-3 0  9997
2 64911  53.1580 172.9500 0000945  74.9125 285.1982 15.34397087 53678
STARLINK-34711          
1 64912U 25157J   26183.23396029  .00033408  00000+0  99522-3 0  9993
2 64912  53.1588 172.7302 0000994  95.1533 264.9583 15.34408506 53678
STARLINK-34659          
1 64913U 25157K   26183.24615819  .00022286  00000+0  72730-3 0  9990
2 64913  53.1578 172.8057 0001039  71.0758 289.0356 15.31720973 53622
STARLINK-34571          
1 64914U 25157L   26183.25711491  .00011792  00000+0  35989-3 0  9990
2 64914  53.1576 172.8702 0001430  86.2744 273.8422 15.34372168 53623
STARLINK-34636          
1 64915U 25157M   26183.23185662  .00024344  00000+0  72908-3 0  9993
2 64915  53.1591 172.7128 0001722  96.5251 263.5947 15.34409195 53677
STARLINK-34695          
1 64916U 25157N   26183.26811868  .00017471  00000+0  52687-3 0  9996
2 64916  53.1584 165.1363 0001322  86.0409 274.0744 15.34407101 53781
STARLINK-34653          
1 64917U 25157P   26183.28349969  .00010682  00000+0  35521-3 0  9992
2 64917  53.1581 173.0338 0001650  71.8719 288.2462 15.31724457 53629
STARLINK-34611          
1 64918U 25157Q   26183.28857676  .00021369  00000+0  64172-3 0  9990
2 64918  53.1584 172.3594 0001267  93.0091 267.1056 15.34403426 53686
STARLINK-34599          
1 64919U 25157R   26183.28445793  .00020672  00000+0  62123-3 0  9994
2 64919  53.1585 173.0285 0001205  87.3943 272.7197 15.34401588 53671
STARLINK-34069          
1 64920U 25157S   26183.25082030  .00029902  00000+0  89313-3 0  9999
2 64920  53.1588 172.8358 0001405  86.3189 273.7974 15.34380804 53678
STARLINK-34699          
1 64921U 25157T   26183.28647294  .00016785  00000+0  50676-3 0  9997
2 64921  53.1583 172.3455 0001338  86.5561 273.5595 15.34402155 53680
STARLINK-34700          
1 64922U 25157U   26183.27814596  .00031287  00000+0  93290-3 0  9991
2 64922  53.1588 172.9996 0001105  99.8367 260.2760 15.34412529 53622
STARLINK-34643          
1 64923U 25157V   26183.24237824  .00031374  00000+0  93519-3 0  9993
2 64923  53.1588 172.7787 0001553  77.2289 282.8887 15.34421387 53676
STARLINK-34199          
1 64924U 25157W   26183.23215326  .00017885  00000+0  58637-3 0  9999
2 64924  53.1597 172.7147 0001362  86.9514 273.1644 15.31719592 53627
STARLINK-34579          
1 64925U 25157X   26183.24448120  .00036852  00000+0  10964-2 0  9996
2 64925  53.1583 172.7919 0001247  79.4244 280.6899 15.34403362 53677
STARLINK-34543          
1 64926U 25157Y   26183.14832876  .00027478  00000+0  89335-3 0  9994
2 64926  53.1575 173.6096 0001218  95.2111 264.9030 15.31721865 53605
STARLINK-34661          
1 64927U 25157Z   26183.24027185  .00022689  00000+0  68041-3 0  9995
2 64927  53.1592 172.7551 0001411  81.6512 278.4651 15.34409887 53395
STARLINK-34248          
1 64928U 25157AA  26183.21090458  .00032027  00000+0  95463-3 0  9991
2 64928  53.1580 173.2898 0001151 103.0532 257.0600 15.34411939 53663
STARLINK-34290          
1 64929U 25157AB  26183.28024481  .00018840  00000+0  56771-3 0  9998
2 64929  53.1591 173.0147 0000948  97.1420 262.9690 15.34379463 53673
STARLINK-34220          
1 64930U 25157AC  26183.24148834  .00029046  00000+0  94322-3 0  9999
2 64930  53.1586 172.7629 0001348  82.2897 277.8257 15.31729746 53560
STARLINK-34715          
1 64931U 25157AD  26183.25289672  .00033804  00000+0  10071-2 0  9992
2 64931  53.1582 172.8414 0001285  84.2519 275.8631 15.34399418 53671
STARLINK-34705          
1 64932U 25158A   26183.20368841  .00007582  00000+0  52855-3 0  9996
2 64932  97.2873  45.3521 0002556  81.3126 278.8391 15.05669972 52589
